[{"OBJECT_NAME":"STARLINK-5631","OBJECT_ID":"2023-013R","EPOCH":"2026-03-08T23:45:53.991936","MEAN_MOTION":15.02527015,"ECCENTRICITY":0.00014588,"INCLINATION":43.0022,"RA_OF_ASC_NODE":304.182,"ARG_OF_PERICENTER":265.7976,"MEAN_ANOMALY":94.27,"EPHEMERIS_TYPE":0,"CLASSIFICATION_TYPE":"U","NORAD_CAT_ID":55346,"ELEMENT_SET_NO":999,"REV_AT_EPOCH":17160,"BSTAR":-0.00010228219,"MEAN_MOTION_DOT":-1.585e-5,"MEAN_MOTION_DDOT":0},{"OBJECT_NAME":"KUIPER-00179","OBJECT_ID":"2025-301D","EPOCH":"2026-03-09T22:00:01.999584","MEAN_MOTION":15.06426136,"ECCENTRICITY":0.00027009,"INCLINATION":51.8878,"RA_OF_ASC_NODE":65.7875,"ARG_OF_PERICENTER":79.7828,"MEAN_ANOMALY":141.5104,"EPHEMERIS_TYPE":0,"CLASSIFICATION_TYPE":"U","NORAD_CAT_ID":67136,"ELEMENT_SET_NO":999,"REV_AT_EPOCH":537,"BSTAR":-0.078767589,"MEAN_MOTION_DOT":-0.01086026,"MEAN_MOTION_DDOT":0}]
